{
  "type": "FeatureCollection",
  "features": [
    {
      "type": "Feature",
      "properties": {
        "norad_id": 66900,
        "name": "STARLINK-36074",
        "group": "last-30-days",
        "lat": -34.280770558640235,
        "lon": 37.00299961984626,
        "alt_km": 299.4246404729911,
        "timestamp": "2025-12-13T22:39:28.446526+00:00",
        "meta_object_name": "STARLINK-36074",
        "meta_object_id": "2025-283Y",
        "meta_epoch": "2025-12-13T06:00:02.000160",
        "meta_mean_motion": 15.94339518,
        "meta_eccentricity": 9.442e-05,
        "meta_inclination": 53.1543,
        "meta_ra_of_asc_node": 71.29,
        "meta_arg_of_pericenter": 73.9896,
        "meta_mean_anomaly": 217.5661,
        "meta_ephemeris_type": 0,
        "meta_classification_type": "U",
        "meta_norad_cat_id": 66900,
        "meta_element_set_no": 999,
        "meta_rev_at_epoch": 251,
        "meta_bstar": -0.0033847503,
        "meta_mean_motion_dot": -0.01298298,
        "meta_mean_motion_ddot": 0.00050308723,
        "tle_line1": "1 66900U 25283Y   25347.25002315 -.01298298  50309-3 -33848-2 0  9999",
        "tle_line2": "2 66900  53.1543  71.2900 0000944  73.9896 217.5661 15.94339518  2516"
      },
      "geometry": {
        "type": "Point",
        "coordinates": [
          37.00299961984626,
          -34.280770558640235
        ]
      }
    },
    {
      "type": "Feature",
      "properties": {
        "norad_id": 66901,
        "name": "STARLINK-36043",
        "group": "last-30-days",
        "lat": -32.69828126025701,
        "lon": 38.964173812297666,
        "alt_km": 299.14702948372724,
        "timestamp": "2025-12-13T22:39:28.446548+00:00",
        "meta_object_name": "STARLINK-36043",
        "meta_object_id": "2025-283Z",
        "meta_epoch": "2025-12-13T06:00:02.000160",
        "meta_mean_motion": 15.94398776,
        "meta_eccentricity": 9.84e-05,
        "meta_inclination": 53.1544,
        "meta_ra_of_asc_node": 71.2856,
        "meta_arg_of_pericenter": 72.4561,
        "meta_mean_anomaly": 221.2347,
        "meta_ephemeris_type": 0,
        "meta_classification_type": "U",
        "meta_norad_cat_id": 66901,
        "meta_element_set_no": 999,
        "meta_rev_at_epoch": 251,
        "meta_bstar": -0.0033760195,
        "meta_mean_motion_dot": -0.01299045,
        "meta_mean_motion_ddot": 0.00050391325,
        "tle_line1": "1 66901U 25283Z   25347.25002315 -.01299045  50391-3 -33760-2 0  9995",
        "tle_line2": "2 66901  53.1544  71.2856 0000984  72.4561 221.2347 15.94398776  2519"
      },
      "geometry": {
        "type": "Point",
        "coordinates": [
          38.964173812297666,
          -32.69828126025701
        ]
      }
    },
    {
      "type": "Feature",
      "properties": {
        "norad_id": 66902,
        "name": "STARLINK-35983",
        "group": "last-30-days",
        "lat": -30.718922411918207,
        "lon": 41.273869302079845,
        "alt_km": 298.82785758139653,
        "timestamp": "2025-12-13T22:39:28.446559+00:00",
        "meta_object_name": "STARLINK-35983",
        "meta_object_id": "2025-283AA",
        "meta_epoch": "2025-12-13T06:00:02.000160",
        "meta_mean_motion": 15.94476068,
        "meta_eccentricity": 9.263e-05,
        "meta_inclination": 53.1543,
        "meta_ra_of_asc_node": 71.2805,
        "meta_arg_of_pericenter": 74.4187,
        "meta_mean_anomaly": 221.8928,
        "meta_ephemeris_type": 0,
        "meta_classification_type": "U",
        "meta_norad_cat_id": 66902,
        "meta_element_set_no": 999,
        "meta_rev_at_epoch": 251,
        "meta_bstar": -0.0033926086,
        "meta_mean_motion_dot": -0.0131068,
        "meta_mean_motion_ddot": 0.00051256152,
        "tle_line1": "1 66902U 25283AA  25347.25002315 -.01310680  51256-3 -33926-2 0  9990",
        "tle_line2": "2 66902  53.1543  71.2805 0000926  74.4187 221.8928 15.94476068  2517"
      },
      "geometry": {
        "type": "Point",
        "coordinates": [
          41.273869302079845,
          -30.718922411918207
        ]
      }
    },
    {
      "type": "Feature",
      "properties": {
        "norad_id": 66903,
        "name": "STARLINK-36077",
        "group": "last-30-days",
        "lat": -29.11029328042916,
        "lon": 43.04966942883233,
        "alt_km": 298.5177380287396,
        "timestamp": "2025-12-13T22:39:28.446569+00:00",
        "meta_object_name": "STARLINK-36077",
        "meta_object_id": "2025-283AB",
        "meta_epoch": "2025-12-13T06:00:02.000160",
        "meta_mean_motion": 15.94536304,
        "meta_eccentricity": 8.991e-05,
        "meta_inclination": 53.1546,
        "meta_ra_of_asc_node": 71.276,
        "meta_arg_of_pericenter": 73.2851,
        "meta_mean_anomaly": 225.1086,
        "meta_ephemeris_type": 0,
        "meta_classification_type": "U",
        "meta_norad_cat_id": 66903,
        "meta_element_set_no": 999,
        "meta_rev_at_epoch": 251,
        "meta_bstar": -0.0033836758,
        "meta_mean_motion_dot": -0.01311431,
        "meta_mean_motion_ddot": 0.00051340608,
        "tle_line1": "1 66903U 25283AB  25347.25002315 -.01311431  51341-3 -33837-2 0  9992",
        "tle_line2": "2 66903  53.1546  71.2760 0000899  73.2851 225.1086 15.94536304  2517"
      },
      "geometry": {
        "type": "Point",
        "coordinates": [
          43.04966942883233,
          -29.11029328042916
        ]
      }
    },
    {
      "type": "Feature",
      "properties": {
        "norad_id": 66904,
        "name": "STARLINK-36059",
        "group": "last-30-days",
        "lat": -27.38125972953234,
        "lon": 44.87022545592193,
        "alt_km": 298.2148821710316,
        "timestamp": "2025-12-13T22:39:28.446578+00:00",
        "meta_object_name": "STARLINK-36059",
        "meta_object_id": "2025-283AC",
        "meta_epoch": "2025-12-13T06:00:02.000160",
        "meta_mean_motion": 15.94601745,
        "meta_eccentricity": 8.775e-05,
        "meta_inclination": 53.1542,
        "meta_ra_of_asc_node": 71.2713,
        "meta_arg_of_pericenter": 73.6999,
        "meta_mean_anomaly": 226.9035,
        "meta_ephemeris_type": 0,
        "meta_classification_type": "U",
        "meta_norad_cat_id": 66904,
        "meta_element_set_no": 999,
        "meta_rev_at_epoch": 251,
        "meta_bstar": -0.0033875917,
        "meta_mean_motion_dot": -0.01317476,
        "meta_mean_motion_ddot": 0.00051806626,
        "tle_line1": "1 66904U 25283AC  25347.25002315 -.01317476  51807-3 -33876-2 0  9998",
        "tle_line2": "2 66904  53.1542  71.2713 0000877  73.6999 226.9035 15.94601745  2510"
      },
      "geometry": {
        "type": "Point",
        "coordinates": [
          44.87022545592193,
          -27.38125972953234
        ]
      }
    },
    {
      "type": "Feature",
      "properties": {
        "norad_id": 66905,
        "name": "STARLINK-36075",
        "group": "last-30-days",
        "lat": -25.87035254017472,
        "lon": 46.39671298701736,
        "alt_km": 297.96944549737236,
        "timestamp": "2025-12-13T22:39:28.446591+00:00",
        "meta_object_name": "STARLINK-36075",
        "meta_object_id": "2025-283AD",
        "meta_epoch": "2025-12-13T06:00:02.000160",
        "meta_mean_motion": 15.94659835,
        "meta_eccentricity": 9.307e-05,
        "meta_inclination": 53.1545,
        "meta_ra_of_asc_node": 71.2675,
        "meta_arg_of_pericenter": 75.4187,
        "meta_mean_anomaly": 227.0866,
        "meta_ephemeris_type": 0,
        "meta_classification_type": "U",
        "meta_norad_cat_id": 66905,
        "meta_element_set_no": 999,
        "meta_rev_at_epoch": 251,
        "meta_bstar": -0.0033870476,
        "meta_mean_motion_dot": -0.01321325,
        "meta_mean_motion_ddot": 0.00052113152,
        "tle_line1": "1 66905U 25283AD  25347.25002315 -.01321325  52113-3 -33870-2 0  9992",
        "tle_line2": "2 66905  53.1545  71.2675 0000930  75.4187 227.0866 15.94659835  2517"
      },
      "geometry": {
        "type": "Point",
        "coordinates": [
          46.39671298701736,
          -25.87035254017472
        ]
      }
    },
    {
      "type": "Feature",
      "properties": {
        "norad_id": 66906,
        "name": "1998-067XS",
        "group": "last-30-days",
        "lat": -39.516211551242826,
        "lon": 95.63507923284084,
        "alt_km": 419.3848520504407,
        "timestamp": "2025-12-13T22:39:28.446604+00:00",
        "meta_object_name": "1998-067XS",
        "meta_object_id": "1998-067XS",
        "meta_epoch": "2025-12-12T17:30:10.785600",
        "meta_mean_motion": 15.50562979,
        "meta_eccentricity": 0.00036025,
        "meta_inclination": 51.6293,
        "meta_ra_of_asc_node": 142.4703,
        "meta_arg_of_pericenter": 202.1444,
        "meta_mean_anomaly": 157.939,
        "meta_ephemeris_type": 0,
        "meta_classification_type": "U",
        "meta_norad_cat_id": 66906,
        "meta_element_set_no": 999,
        "meta_rev_at_epoch": 161,
        "meta_bstar": 0.00063717141,
        "meta_mean_motion_dot": 0.00036816,
        "meta_mean_motion_ddot": 0,
        "tle_line1": "1 66906U 98067XS  25346.72929150  .00036816  00000+0  63717-3 0  9992",
        "tle_line2": "2 66906  51.6293 142.4703 0003602 202.1444 157.9390 15.50562979  1615"
      },
      "geometry": {
        "type": "Point",
        "coordinates": [
          95.63507923284084,
          -39.516211551242826
        ]
      }
    }
  ]
}